# Running log file for GPS_BIIRM-4_(PRN_15) TLE data from Celestrack TLE repository (sourced from NORAD)

# Line 1 is: <line> <sat_num> <int_desig> <ep_yr_fracday> <1_der_mm> <2_der_mm> <drag> <eph_typ> <el_set> <cs>
# TLE Line 2 is: <line> <sat_num> <incl> <ra> <ecc> <peri> <m_anom> <m_mot> <rev_num> <cs>

#####################################################################
Mon, 01 Jun 2015 16:06:03 GMT
1 32260U 07047A   15152.19914294 -.00000007  00000-0  00000+0 0  9991
2 32260  53.4729 247.4614 0070620  20.8242 320.9587  2.00566287 55938

